[{"OBJECT_NAME":"STARLINK-36817","OBJECT_ID":"2026-035D","EPOCH":"2026-03-13T22:00:01.999584","MEAN_MOTION":15.80808392,"ECCENTRICITY":0.0001115,"INCLINATION":97.2855,"RA_OF_ASC_NODE":5.5025,"ARG_OF_PERICENTER":60.2047,"MEAN_ANOMALY":93.6919,"EPHEMERIS_TYPE":0,"CLASSIFICATION_TYPE":"U","NORAD_CAT_ID":67882,"ELEMENT_SET_NO":999,"REV_AT_EPOCH":443,"BSTAR":4.451386e-5,"MEAN_MOTION_DOT":8.39e-5,"MEAN_MOTION_DDOT":0},{"OBJECT_NAME":"STARLINK-36856","OBJECT_ID":"2026-035E","EPOCH":"2026-03-13T22:00:01.999584","MEAN_MOTION":15.80794189,"ECCENTRICITY":0.00011144,"INCLINATION":97.2843,"RA_OF_ASC_NODE":5.5016,"ARG_OF_PERICENTER":81.1712,"MEAN_ANOMALY":68.4533,"EPHEMERIS_TYPE":0,"CLASSIFICATION_TYPE":"U","NORAD_CAT_ID":67883,"ELEMENT_SET_NO":999,"REV_AT_EPOCH":443,"BSTAR":0.00018483796,"MEAN_MOTION_DOT":0.00035371,"MEAN_MOTION_DDOT":0},{"OBJECT_NAME":"STARLINK-36842","OBJECT_ID":"2026-035F","EPOCH":"2026-03-13T22:00:01.999584","MEAN_MOTION":15.81227308,"ECCENTRICITY":0.0001441,"INCLINATION":97.2852,"RA_OF_ASC_NODE":5.5036,"ARG_OF_PERICENTER":116.7564,"MEAN_ANOMALY":41.3407,"EPHEMERIS_TYPE":0,"CLASSIFICATION_TYPE":"U","NORAD_CAT_ID":67884,"ELEMENT_SET_NO":999,"REV_AT_EPOCH":443,"BSTAR":-0.0075321146,"MEAN_MOTION_DOT":-0.01295877,"MEAN_MOTION_DDOT":0},{"OBJECT_NAME":"STARLINK-36826","OBJECT_ID":"2026-035G","EPOCH":"2026-03-13T22:00:01.999584","MEAN_MOTION":15.80858367,"ECCENTRICITY":0.00010435,"INCLINATION":97.285,"RA_OF_ASC_NODE":5.5056,"ARG_OF_PERICENTER":115.1226,"MEAN_ANOMALY":47.3015,"EPHEMERIS_TYPE":0,"CLASSIFICATION_TYPE":"U","NORAD_CAT_ID":67885,"ELEMENT_SET_NO":999,"REV_AT_EPOCH":443,"BSTAR":-0.00024345119,"MEAN_MOTION_DOT":-0.00046615,"MEAN_MOTION_DDOT":0},{"OBJECT_NAME":"STARLINK-36390","OBJECT_ID":"2026-035H","EPOCH":"2026-03-13T22:00:01.999584","MEAN_MOTION":15.80908631,"ECCENTRICITY":0.00011208,"INCLINATION":97.285,"RA_OF_ASC_NODE":5.5065,"ARG_OF_PERICENTER":80.7297,"MEAN_ANOMALY":85.9655,"EPHEMERIS_TYPE":0,"CLASSIFICATION_TYPE":"U","NORAD_CAT_ID":67886,"ELEMENT_SET_NO":999,"REV_AT_EPOCH":448,"BSTAR":-0.0013609605,"MEAN_MOTION_DOT":-0.00254454,"MEAN_MOTION_DDOT":0},{"OBJECT_NAME":"STARLINK-36368","OBJECT_ID":"2026-035J","EPOCH":"2026-03-13T22:00:01.999584","MEAN_MOTION":15.80676007,"ECCENTRICITY":0.00013039,"INCLINATION":97.2849,"RA_OF_ASC_NODE":5.5083,"ARG_OF_PERICENTER":80.2149,"MEAN_ANOMALY":90.7937,"EPHEMERIS_TYPE":0,"CLASSIFICATION_TYPE":"U","NORAD_CAT_ID":67887,"ELEMENT_SET_NO":999,"REV_AT_EPOCH":443,"BSTAR":0.00089163019,"MEAN_MOTION_DOT":0.00172967,"MEAN_MOTION_DDOT":0},{"OBJECT_NAME":"STARLINK-36801","OBJECT_ID":"2026-035K","EPOCH":"2026-03-13T22:00:01.999584","MEAN_MOTION":15.80830181,"ECCENTRICITY":0.00014636,"INCLINATION":97.2852,"RA_OF_ASC_NODE":5.5103,"ARG_OF_PERICENTER":102.8858,"MEAN_ANOMALY":72.3935,"EPHEMERIS_TYPE":0,"CLASSIFICATION_TYPE":"U","NORAD_CAT_ID":67888,"ELEMENT_SET_NO":999,"REV_AT_EPOCH":443,"BSTAR":-0.00025139151,"MEAN_MOTION_DOT":-0.00048063,"MEAN_MOTION_DDOT":0},{"OBJECT_NAME":"STARLINK-36372","OBJECT_ID":"2026-035L","EPOCH":"2026-03-13T22:00:01.999584","MEAN_MOTION":15.80819618,"ECCENTRICITY":0.00017142,"INCLINATION":97.2848,"RA_OF_ASC_NODE":5.5125,"ARG_OF_PERICENTER":88.5294,"MEAN_ANOMALY":95.2835,"EPHEMERIS_TYPE":0,"CLASSIFICATION_TYPE":"U","NORAD_CAT_ID":67889,"ELEMENT_SET_NO":999,"REV_AT_EPOCH":443,"BSTAR":-9.689565e-5,"MEAN_MOTION_DOT":-0.00018666,"MEAN_MOTION_DDOT":0},{"OBJECT_NAME":"STARLINK-36363","OBJECT_ID":"2026-035M","EPOCH":"2026-03-13T22:00:01.999584","MEAN_MOTION":15.80843579,"ECCENTRICITY":0.00014743,"INCLINATION":97.2857,"RA_OF_ASC_NODE":5.5119,"ARG_OF_PERICENTER":87.0663,"MEAN_ANOMALY":92.4708,"EPHEMERIS_TYPE":0,"CLASSIFICATION_TYPE":"U","NORAD_CAT_ID":67890,"ELEMENT_SET_NO":999,"REV_AT_EPOCH":443,"BSTAR":-0.00049138871,"MEAN_MOTION_DOT":-0.00093386,"MEAN_MOTION_DDOT":0},{"OBJECT_NAME":"STARLINK-36816","OBJECT_ID":"2026-035N","EPOCH":"2026-03-13T22:00:01.999584","MEAN_MOTION":15.80791212,"ECCENTRICITY":0.00015514,"INCLINATION":97.286,"RA_OF_ASC_NODE":5.5329,"ARG_OF_PERICENTER":89.1916,"MEAN_ANOMALY":150.1899,"EPHEMERIS_TYPE":0,"CLASSIFICATION_TYPE":"U","NORAD_CAT_ID":67891,"ELEMENT_SET_NO":999,"REV_AT_EPOCH":433,"BSTAR":0.00013918465,"MEAN_MOTION_DOT":0.0002657,"MEAN_MOTION_DDOT":0},{"OBJECT_NAME":"STARLINK-36813","OBJECT_ID":"2026-035P","EPOCH":"2026-03-13T22:00:01.999584","MEAN_MOTION":15.80801896,"ECCENTRICITY":0.00014369,"INCLINATION":97.2833,"RA_OF_ASC_NODE":5.5206,"ARG_OF_PERICENTER":87.0868,"MEAN_ANOMALY":126.6572,"EPHEMERIS_TYPE":0,"CLASSIFICATION_TYPE":"U","NORAD_CAT_ID":67892,"ELEMENT_SET_NO":999,"REV_AT_EPOCH":443,"BSTAR":-1.9881471e-5,"MEAN_MOTION_DOT":-3.946e-5,"MEAN_MOTION_DDOT":0},{"OBJECT_NAME":"STARLINK-36803","OBJECT_ID":"2026-035Q","EPOCH":"2026-03-13T22:00:01.999584","MEAN_MOTION":15.80774398,"ECCENTRICITY":0.00017114,"INCLINATION":97.2849,"RA_OF_ASC_NODE":5.5143,"ARG_OF_PERICENTER":69.4188,"MEAN_ANOMALY":118.6858,"EPHEMERIS_TYPE":0,"CLASSIFICATION_TYPE":"U","NORAD_CAT_ID":67893,"ELEMENT_SET_NO":999,"REV_AT_EPOCH":443,"BSTAR":0.00030631214,"MEAN_MOTION_DOT":0.00058818,"MEAN_MOTION_DDOT":0},{"OBJECT_NAME":"STARLINK-36846","OBJECT_ID":"2026-035R","EPOCH":"2026-03-13T22:00:01.999584","MEAN_MOTION":15.7832038,"ECCENTRICITY":0.0001794,"INCLINATION":97.2826,"RA_OF_ASC_NODE":5.5164,"ARG_OF_PERICENTER":104.9888,"MEAN_ANOMALY":88.8497,"EPHEMERIS_TYPE":0,"CLASSIFICATION_TYPE":"U","NORAD_CAT_ID":67894,"ELEMENT_SET_NO":999,"REV_AT_EPOCH":443,"BSTAR":-0.01331398,"MEAN_MOTION_DOT":-0.01976999,"MEAN_MOTION_DDOT":0},{"OBJECT_NAME":"STARLINK-36866","OBJECT_ID":"2026-035S","EPOCH":"2026-03-13T22:00:01.999584","MEAN_MOTION":15.8085061,"ECCENTRICITY":0.0001594,"INCLINATION":97.2844,"RA_OF_ASC_NODE":5.519,"ARG_OF_PERICENTER":97.7079,"MEAN_ANOMALY":103.2129,"EPHEMERIS_TYPE":0,"CLASSIFICATION_TYPE":"U","NORAD_CAT_ID":67895,"ELEMENT_SET_NO":999,"REV_AT_EPOCH":443,"BSTAR":-0.00039866696,"MEAN_MOTION_DOT":-0.00075968,"MEAN_MOTION_DDOT":0},{"OBJECT_NAME":"STARLINK-36877","OBJECT_ID":"2026-035T","EPOCH":"2026-03-13T22:00:01.999584","MEAN_MOTION":15.8085077,"ECCENTRICITY":0.00018818,"INCLINATION":97.2848,"RA_OF_ASC_NODE":5.5154,"ARG_OF_PERICENTER":88.7606,"MEAN_ANOMALY":103.5974,"EPHEMERIS_TYPE":0,"CLASSIFICATION_TYPE":"U","NORAD_CAT_ID":67896,"ELEMENT_SET_NO":999,"REV_AT_EPOCH":443,"BSTAR":-0.000474802,"MEAN_MOTION_DOT":-0.00090306,"MEAN_MOTION_DDOT":0},{"OBJECT_NAME":"STARLINK-36870","OBJECT_ID":"2026-035U","EPOCH":"2026-03-13T22:00:01.999584","MEAN_MOTION":15.80824532,"ECCENTRICITY":0.00013341,"INCLINATION":97.2833,"RA_OF_ASC_NODE":5.5184,"ARG_OF_PERICENTER":95.5662,"MEAN_ANOMALY":109.6203,"EPHEMERIS_TYPE":0,"CLASSIFICATION_TYPE":"U","NORAD_CAT_ID":67897,"ELEMENT_SET_NO":999,"REV_AT_EPOCH":443,"BSTAR":-0.00017008083,"MEAN_MOTION_DOT":-0.00032612,"MEAN_MOTION_DDOT":0}]
