STARLINK-36817          
1 67882U 26035D   26072.91668981  .00008390  00000+0  44514-4 0  9993
2 67882  97.2855   5.5025 0001115  60.2047  93.6919 15.80808392  4435
STARLINK-36856          
1 67883U 26035E   26072.91668981  .00035371  00000+0  18484-3 0  9999
2 67883  97.2843   5.5016 0001114  81.1712  68.4533 15.80794189  4433
STARLINK-36842          
1 67884U 26035F   26072.91668981 -.01295877  00000+0 -75321-2 0  9994
2 67884  97.2852   5.5036 0001441 116.7564  41.3407 15.81227308  4434
STARLINK-36826          
1 67885U 26035G   26072.91668981 -.00046615  00000+0 -24345-3 0  9999
2 67885  97.2850   5.5056 0001043 115.1226  47.3015 15.80858367  4436
STARLINK-36390          
1 67886U 26035H   26072.91668981 -.00254454  00000+0 -13610-2 0  9994
2 67886  97.2850   5.5065 0001120  80.7297  85.9655 15.80908631  4481
STARLINK-36368          
1 67887U 26035J   26072.91668981  .00172967  00000+0  89163-3 0  9998
2 67887  97.2849   5.5083 0001303  80.2149  90.7937 15.80676007  4435
STARLINK-36801          
1 67888U 26035K   26072.91668981 -.00048063  00000+0 -25139-3 0  9993
2 67888  97.2852   5.5103 0001463 102.8858  72.3935 15.80830181  4437
STARLINK-36372          
1 67889U 26035L   26072.91668981 -.00018666  00000+0 -96896-4 0  9999
2 67889  97.2848   5.5125 0001714  88.5294  95.2835 15.80819618  4435
STARLINK-36363          
1 67890U 26035M   26072.91668981 -.00093386  00000+0 -49139-3 0  9990
2 67890  97.2857   5.5119 0001474  87.0663  92.4708 15.80843579  4438
STARLINK-36816          
1 67891U 26035N   26072.91668981  .00026570  00000+0  13918-3 0  9996
2 67891  97.2860   5.5329 0001551  89.1916 150.1899 15.80791212  4334
STARLINK-36813          
1 67892U 26035P   26072.91668981 -.00003946  00000+0 -19881-4 0  9997
2 67892  97.2833   5.5206 0001436  87.0868 126.6572 15.80801896  4431
STARLINK-36803          
1 67893U 26035Q   26072.91668981  .00058818  00000+0  30631-3 0  9999
2 67893  97.2849   5.5143 0001711  69.4188 118.6858 15.80774398  4438
STARLINK-36846          
1 67894U 26035R   26072.91668981 -.01976999  00000+0 -13314-1 0  9999
2 67894  97.2826   5.5164 0001794 104.9888  88.8497 15.78320380  4432
STARLINK-36866          
1 67895U 26035S   26072.91668981 -.00075968  00000+0 -39867-3 0  9998
2 67895  97.2844   5.5190 0001594  97.7079 103.2129 15.80850610  4432
STARLINK-36877          
1 67896U 26035T   26072.91668981 -.00090306  00000+0 -47480-3 0  9992
2 67896  97.2848   5.5154 0001881  88.7606 103.5974 15.80850770  4430
STARLINK-36870          
1 67897U 26035U   26072.91668981 -.00032612  00000+0 -17008-3 0  9992
2 67897  97.2833   5.5184 0001334  95.5662 109.6203 15.80824532  4438
